start=new Date('2022-04-14T00:00:00.000Z').valueOf();
sats=[{"FILE":"3400454","ARG_OF_PERICENTER":"309.6212","OBJECT_ID":"2020-019BC","PERIAPSIS":"316.036","PERIOD":"90.861","SEMIMAJOR_AXIS":"6694.896","ELEMENT_SET_NO":"999","MEAN_ELEMENT_THEORY":"SGP4","MEAN_MOTION":"15.84845696","MEAN_MOTION_DOT":"0.00130895","OBJECT_NAME":"STARLINK-1285","MEAN_ANOMALY":"50.4715","TLE_LINE1":"1 45410U 20019BC  22103.77815321  .00130895  00000-0  54496-3 0  9995","COUNTRY_CODE":"US","REV_AT_EPOCH":"11686","RCS_SIZE":"LARGE","GP_ID":"201173233","APOAPSIS":"317.487","OBJECT_TYPE":"PAYLOAD","NORAD_CAT_ID":"45410","RA_OF_ASC_NODE":"279.6557","TIME_SYSTEM":"UTC","LAUNCH_DATE":"2020-03-18","SITE":"AFETR","EPOCH":"2022-04-13T18:40:32.437344","CLASSIFICATION_TYPE":"U","MEAN_MOTION_DDOT":"0.0000000000000","INCLINATION":"53.0454","REF_FRAME":"TEME","ECCENTRICITY":"0.00010840","DECAY_DATE":null,"EPHEMERIS_TYPE":"0","CENTER_NAME":"EARTH","TLE_LINE2":"2 45410  53.0454 279.6557 0001084 309.6212  50.4715 15.84845696116864","BSTAR":"0.00054496000000"},{"RA_OF_ASC_NODE":"59.6730","TIME_SYSTEM":"UTC","NORAD_CAT_ID":"45411","OBJECT_TYPE":"PAYLOAD","APOAPSIS":"548.244","GP_ID":"201139432","RCS_SIZE":"LARGE","REV_AT_EPOCH":"11490","COUNTRY_CODE":"US","TLE_LINE1":"1 45411U 20019BD  22103.35427170  .00012017  00000-0  82436-3 0  9991","OBJECT_NAME":"STARLINK-1293","MEAN_ANOMALY":"291.1203","MEAN_MOTION_DOT":"0.00012017","MEAN_MOTION":"15.06395549","MEAN_ELEMENT_THEORY":"SGP4","ELEMENT_SET_NO":"999","PERIOD":"95.592","PERIAPSIS":"546.211","SEMIMAJOR_AXIS":"6925.362","ARG_OF_PERICENTER":"68.9943","OBJECT_ID":"2020-019BD","FILE":"3399963","BSTAR":"0.00082436000000","TLE_LINE2":"2 45411  53.0542  59.6730 0001468  68.9943 291.1203 15.06395549114904","CENTER_NAME":"EARTH","EPHEMERIS_TYPE":"0","ECCENTRICITY":"0.00014680","DECAY_DATE":null,"REF_FRAME":"TEME","INCLINATION":"53.0542","MEAN_MOTION_DDOT":"0.0000000000000","CLASSIFICATION_TYPE":"U","EPOCH":"2022-04-13T08:30:09.074880","SITE":"AFETR","LAUNCH_DATE":"2020-03-18"},{"GP_ID":"201172231","RCS_SIZE":"LARGE","APOAPSIS":"548.506","NORAD_CAT_ID":"45412","OBJECT_TYPE":"PAYLOAD","RA_OF_ASC_NODE":"58.6481","TIME_SYSTEM":"UTC","COUNTRY_CODE":"US","REV_AT_EPOCH":"11491","MEAN_ANOMALY":"294.7776","OBJECT_NAME":"STARLINK-1296","MEAN_MOTION_DOT":"0.00002608","TLE_LINE1":"1 45412U 20019BE  22103.58647795  .00002608  00000-0  19392-3 0  9990","FILE":"3400454","PERIAPSIS":"545.938","SEMIMAJOR_AXIS":"6925.357","PERIOD":"95.592","ARG_OF_PERICENTER":"65.3405","OBJECT_ID":"2020-019BE","ELEMENT_SET_NO":"999","MEAN_MOTION":"15.06397185","MEAN_ELEMENT_THEORY":"SGP4","REF_FRAME":"TEME","ECCENTRICITY":"0.00018540","DECAY_DATE":null,"CENTER_NAME":"EARTH","EPHEMERIS_TYPE":"0","BSTAR":"0.00019392000000","TLE_LINE2":"2 45412  53.0538  58.6481 0001854  65.3405 294.7776 15.06397185114918","INCLINATION":"53.0538","SITE":"AFETR","LAUNCH_DATE":"2020-03-18","EPOCH":"2022-04-13T14:04:31.694880","CLASSIFICATION_TYPE":"U","MEAN_MOTION_DDOT":"0.0000000000000"},{"ECCENTRICITY":"0.00016420","DECAY_DATE":null,"REF_FRAME":"TEME","BSTAR":"0.00068055000000","TLE_LINE2":"2 45413  53.0533  57.3153 0001642  72.1235 287.9933 15.06413647115055","EPHEMERIS_TYPE":"0","CENTER_NAME":"EARTH","EPOCH":"2022-04-13T21:09:07.530624","LAUNCH_DATE":"2020-03-18","SITE":"AFETR","MEAN_MOTION_DDOT":"0.0000000000000","CLASSIFICATION_TYPE":"U","INCLINATION":"53.0533","COUNTRY_CODE":"US","REV_AT_EPOCH":"11505","APOAPSIS":"548.309","RCS_SIZE":"LARGE","GP_ID":"201173483","RA_OF_ASC_NODE":"57.3153","TIME_SYSTEM":"UTC","OBJECT_TYPE":"PAYLOAD","NORAD_CAT_ID":"45413","OBJECT_ID":"2020-019BF","ARG_OF_PERICENTER":"72.1235","PERIOD":"95.591","PERIAPSIS":"546.035","SEMIMAJOR_AXIS":"6925.307","FILE":"3400454","MEAN_ELEMENT_THEORY":"SGP4","MEAN_MOTION":"15.06413647","ELEMENT_SET_NO":"999","MEAN_MOTION_DOT":"0.00009873","OBJECT_NAME":"STARLINK-1298","MEAN_ANOMALY":"287.9933","TLE_LINE1":"1 45413U 20019BF  22103.88133716  .00009873  00000-0  68055-3 0  9998"},{"INCLINATION":"53.0547","MEAN_MOTION_DDOT":"0.0000000000000","CLASSIFICATION_TYPE":"U","EPOCH":"2022-04-13T04:52:30.301536","LAUNCH_DATE":"2020-03-18","SITE":"AFETR","BSTAR":"0.00002983500000","TLE_LINE2":"2 45414  53.0547  60.3570 0001312  75.1430 284.9704 15.06396105114840","EPHEMERIS_TYPE":"0","CENTER_NAME":"EARTH","DECAY_DATE":null,"ECCENTRICITY":"0.00013120","REF_FRAME":"TEME","TLE_LINE1":"1 45414U 20019BG  22103.20312849  .00000163  00000-0  29835-4 0  9998","MEAN_MOTION_DOT":"0.00000163","OBJECT_NAME":"STARLINK-1309","MEAN_ANOMALY":"284.9704","MEAN_ELEMENT_THEORY":"SGP4","MEAN_MOTION":"15.06396105","ELEMENT_SET_NO":"999","OBJECT_ID":"2020-019BG","ARG_OF_PERICENTER":"75.1430","PERIAPSIS":"546.317","PERIOD":"95.592","SEMIMAJOR_AXIS":"6925.360","FILE":"3399963","RA_OF_ASC_NODE":"60.3570","TIME_SYSTEM":"UTC","OBJECT_TYPE":"PAYLOAD","NORAD_CAT_ID":"45414","APOAPSIS":"548.134","RCS_SIZE":"LARGE","GP_ID":"201140178","REV_AT_EPOCH":"11484","COUNTRY_CODE":"US"},{"TIME_SYSTEM":"UTC","RA_OF_ASC_NODE":"59.9458","OBJECT_TYPE":"PAYLOAD","NORAD_CAT_ID":"45415","APOAPSIS":"548.172","RCS_SIZE":"LARGE","GP_ID":"201138938","REV_AT_EPOCH":"11489","COUNTRY_CODE":"US","TLE_LINE1":"1 45415U 20019BH  22103.29527624  .00000873  00000-0  77477-4 0  9990","MEAN_MOTION_DOT":"0.00000873","MEAN_ANOMALY":"281.6104","OBJECT_NAME":"STARLINK-1316","MEAN_ELEMENT_THEORY":"SGP4","MEAN_MOTION":"15.06400467","ELEMENT_SET_NO":"999","OBJECT_ID":"2020-019BH","ARG_OF_PERICENTER":"78.5041","PERIAPSIS":"546.252","SEMIMAJOR_AXIS":"6925.347","PERIOD":"95.592","FILE":"3399963","TLE_LINE2":"2 45415  53.0564  59.9458 0001386  78.5041 281.6104 15.06400467114895","BSTAR":"0.00007747700000","EPHEMERIS_TYPE":"0","CENTER_NAME":"EARTH","ECCENTRICITY":"0.00013860","DECAY_DATE":null,"REF_FRAME":"TEME","INCLINATION":"53.0564","MEAN_MOTION_DDOT":"0.0000000000000","CLASSIFICATION_TYPE":"U","EPOCH":"2022-04-13T07:05:11.867136","LAUNCH_DATE":"2020-03-18","SITE":"AFETR"},{"REV_AT_EPOCH":"11496","COUNTRY_CODE":"US","TIME_SYSTEM":"UTC","RA_OF_ASC_NODE":"57.4349","OBJECT_TYPE":"PAYLOAD","NORAD_CAT_ID":"45416","APOAPSIS":"548.361","RCS_SIZE":"LARGE","GP_ID":"201172732","MEAN_ELEMENT_THEORY":"SGP4","MEAN_MOTION":"15.06416649","ELEMENT_SET_NO":"999","ARG_OF_PERICENTER":"79.1409","OBJECT_ID":"2020-019BJ","SEMIMAJOR_AXIS":"6925.298","PERIAPSIS":"545.964","PERIOD":"95.591","FILE":"3400454","TLE_LINE1":"1 45416U 20019BJ  22103.85922965  .00010952  00000-0  75268-3 0  9994","MEAN_MOTION_DOT":"0.00010952","MEAN_ANOMALY":"280.9775","OBJECT_NAME":"STARLINK-1318","BSTAR":"0.00075268000000","TLE_LINE2":"2 45416  53.0551  57.4349 0001731  79.1409 280.9775 15.06416649114966","EPHEMERIS_TYPE":"0","CENTER_NAME":"EARTH","DECAY_DATE":null,"ECCENTRICITY":"0.00017310","REF_FRAME":"TEME","MEAN_MOTION_DDOT":"0.0000000000000","CLASSIFICATION_TYPE":"U","EPOCH":"2022-04-13T20:37:17.441760","LAUNCH_DATE":"2020-03-18","SITE":"AFETR","INCLINATION":"53.0551"},{"FILE":"3400454","ARG_OF_PERICENTER":"64.3709","OBJECT_ID":"2020-019BK","SEMIMAJOR_AXIS":"6925.374","PERIAPSIS":"546.347","PERIOD":"95.593","ELEMENT_SET_NO":"999","MEAN_ELEMENT_THEORY":"SGP4","MEAN_MOTION":"15.06391599","MEAN_MOTION_DOT":"0.00000001","OBJECT_NAME":"STARLINK-1286","MEAN_ANOMALY":"295.7413","TLE_LINE1":"1 45417U 20019BK  22103.66479553  .00000001  00000-0  18967-4 0  9992","COUNTRY_CODE":"US","REV_AT_EPOCH":"11478","RCS_SIZE":"LARGE","GP_ID":"201172983","APOAPSIS":"548.131","OBJECT_TYPE":"PAYLOAD","NORAD_CAT_ID":"45417","RA_OF_ASC_NODE":"88.2941","TIME_SYSTEM":"UTC","LAUNCH_DATE":"2020-03-18","SITE":"AFETR","EPOCH":"2022-04-13T15:57:18.333792","CLASSIFICATION_TYPE":"U","MEAN_MOTION_DDOT":"0.0000000000000","INCLINATION":"53.0530","REF_FRAME":"TEME","ECCENTRICITY":"0.00012880","DECAY_DATE":null,"EPHEMERIS_TYPE":"0","CENTER_NAME":"EARTH","BSTAR":"0.00001896700000","TLE_LINE2":"2 45417  53.0530  88.2941 0001288  64.3709 295.7413 15.06391599114789"},{"RCS_SIZE":"LARGE","GP_ID":"201173234","APOAPSIS":"556.056","OBJECT_TYPE":"PAYLOAD","NORAD_CAT_ID":"45418","RA_OF_ASC_NODE":"111.3146","TIME_SYSTEM":"UTC","COUNTRY_CODE":"US","REV_AT_EPOCH":"11413","MEAN_MOTION_DOT":"0.00014348","OBJECT_NAME":"STARLINK-1299","MEAN_ANOMALY":"308.5388","TLE_LINE1":"1 45418U 20019BL  22103.29205385  .00014348  00000-0  10466-2 0  9995","FILE":"3400454","ARG_OF_PERICENTER":"51.5767","OBJECT_ID":"2020-019BL","SEMIMAJOR_AXIS":"6932.899","PERIAPSIS":"553.472","PERIOD":"95.749","ELEMENT_SET_NO":"999","MEAN_ELEMENT_THEORY":"SGP4","MEAN_MOTION":"15.03939795","REF_FRAME":"TEME","ECCENTRICITY":"0.00018640","DECAY_DATE":null,"EPHEMERIS_TYPE":"0","CENTER_NAME":"EARTH","TLE_LINE2":"2 45418  52.9988 111.3146 0001864  51.5767 308.5388 15.03939795114138","BSTAR":"0.00104660000000","INCLINATION":"52.9988","LAUNCH_DATE":"2020-03-18","SITE":"AFETR","EPOCH":"2022-04-13T07:00:33.452640","CLASSIFICATION_TYPE":"U","MEAN_MOTION_DDOT":"0.0000000000000"},{"INCLINATION":"53.0561","EPOCH":"2022-04-13T15:52:00.282432","SITE":"AFETR","LAUNCH_DATE":"2020-03-18","MEAN_MOTION_DDOT":"0.0000000000000","CLASSIFICATION_TYPE":"U","ECCENTRICITY":"0.00015360","DECAY_DATE":null,"REF_FRAME":"TEME","TLE_LINE2":"2 45419  53.0561  88.3142 0001536  58.7500 301.3639 15.06398574114538","BSTAR":"0.00014057000000","CENTER_NAME":"EARTH","EPHEMERIS_TYPE":"0","OBJECT_NAME":"STARLINK-1308","MEAN_ANOMALY":"301.3639","MEAN_MOTION_DOT":"0.00001813","TLE_LINE1":"1 45419U 20019BM  22103.66111438  .00001813  00000-0  14057-3 0  9996","PERIOD":"95.592","PERIAPSIS":"546.154","SEMIMAJOR_AXIS":"6925.353","OBJECT_ID":"2020-019BM","ARG_OF_PERICENTER":"58.7500","FILE":"3400454","MEAN_MOTION":"15.06398574","MEAN_ELEMENT_THEORY":"SGP4","ELEMENT_SET_NO":"999","APOAPSIS":"548.282","GP_ID":"201171982","RCS_SIZE":"LARGE","TIME_SYSTEM":"UTC","RA_OF_ASC_NODE":"88.3142","NORAD_CAT_ID":"45419","OBJECT_TYPE":"PAYLOAD","COUNTRY_CODE":"US","REV_AT_EPOCH":"11453"}];
